[{"OBJECT_NAME":"STARLINK-5997","OBJECT_ID":"2023-058L","EPOCH":"2026-03-09T22:07:15.421728","MEAN_MOTION":15.01261291,"ECCENTRICITY":0.00026875,"INCLINATION":97.6036,"RA_OF_ASC_NODE":70.4129,"ARG_OF_PERICENTER":87.471,"MEAN_ANOMALY":272.6822,"EPHEMERIS_TYPE":0,"CLASSIFICATION_TYPE":"U","NORAD_CAT_ID":56327,"ELEMENT_SET_NO":999,"REV_AT_EPOCH":15816,"BSTAR":-4.386509e-6,"MEAN_MOTION_DOT":-1.15e-6,"MEAN_MOTION_DDOT":0},{"OBJECT_NAME":"DMSP 5D-2 F13 DEB","OBJECT_ID":"1995-015CP","EPOCH":"2026-03-07T12:11:36.379680","MEAN_MOTION":14.97633156,"ECCENTRICITY":0.00060588,"INCLINATION":98.7878,"RA_OF_ASC_NODE":156.2683,"ARG_OF_PERICENTER":182.3212,"MEAN_ANOMALY":177.798,"EPHEMERIS_TYPE":0,"CLASSIFICATION_TYPE":"U","NORAD_CAT_ID":40500,"ELEMENT_SET_NO":999,"REV_AT_EPOCH":57139,"BSTAR":0.013984163,"MEAN_MOTION_DOT":0.00167441,"MEAN_MOTION_DDOT":0}]
